{"type": "FeatureCollection", "features": [ {"type": "Feature", "properties": {"norad_id": 31169, "name": "FENGYUN 1C DEB", "group": "fengyun-1c-debris", "lat": -44.42488144535549, "lon": 12.858078902112483, "alt_km": 809.8324308757301, "timestamp": "2025-12-03T17:47:50.998185+00:00", "meta": {"OBJECT_NAME": "FENGYUN 1C DEB", "OBJECT_ID": "1999-025BHX", "EPOCH": "2025-11-27T00:22:38.661600", "MEAN_MOTION": 14.26227458, "ECCENTRICITY": 0.00585141, "INCLINATION": 99.1571, "RA_OF_ASC_NODE": 356.7339, "ARG_OF_PERICENTER": 63.3086, "MEAN_ANOMALY": 297.4067, "EPHEMERIS_TYPE": 0, "CLASSIFICATION_TYPE": "U", "NORAD_CAT_ID": 31169, "ELEMENT_SET_NO": 999, "REV_AT_EPOCH": 56880, "BSTAR": 0.0023468028, "MEAN_MOTION_DOT": 5.684e-05, "MEAN_MOTION_DDOT": 0}, "tle": {"line1": "1 31169U 99025BHX 25331.01572525  .00005684  00000+0  23468-2 0  9993", "line2": "2 31169  99.1571 356.7339 0058514  63.3086 297.4067 14.26227458568802"}}, "geometry": {"type": "Point", "coordinates": [12.858078902112483, -44.42488144535549]}}, {"type": "Feature", "properties": {"norad_id": 31171, "name": "FENGYUN 1C DEB", "group": "fengyun-1c-debris", "lat": 34.5143851084433, "lon": 153.61504006402274, "alt_km": 880.6510346512432, "timestamp": "2025-12-03T17:47:50.998195+00:00", "meta": {"OBJECT_NAME": "FENGYUN 1C DEB", "OBJECT_ID": "1999-025BHZ", "EPOCH": "2025-12-03T11:09:43.643808", "MEAN_MOTION": 14.34330829, "ECCENTRICITY": 0.0156213, "INCLINATION": 98.0138, "RA_OF_ASC_NODE": 327.7993, "ARG_OF_PERICENTER": 344.5885, "MEAN_ANOMALY": 173.0615, "EPHEMERIS_TYPE": 0, "CLASSIFICATION_TYPE": "U", "NORAD_CAT_ID": 31171, "ELEMENT_SET_NO": 999, "REV_AT_EPOCH": 95697, "BSTAR": 0.0068217, "MEAN_MOTION_DOT": 0.00022011, "MEAN_MOTION_DDOT": 0}, "tle": {"line1": "1 31171U 99025BHZ 25337.46508847  .00022011  00000+0  68217-2 0  9991", "line2": "2 31171  98.0138 327.7993 0156213 344.5885 173.0615 14.34330829956975"}}, "geometry": {"type": "Point", "coordinates": [153.61504006402274, 34.5143851084433]}}, {"type": "Feature", "properties": {"norad_id": 31172, "name": "FENGYUN 1C DEB", "group": "fengyun-1c-debris", "lat": 37.98178892739606, "lon": 169.12423432052984, "alt_km": 879.0462639350417, "timestamp": "2025-12-03T17:47:50.998205+00:00", "meta": {"OBJECT_NAME": "FENGYUN 1C DEB", "OBJECT_ID": "1999-025BJA", "EPOCH": "2025-12-03T07:03:47.628000", "MEAN_MOTION": 14.31497145, "ECCENTRICITY": 0.014825, "INCLINATION": 98.4248, "RA_OF_ASC_NODE": 342.0453, "ARG_OF_PERICENTER": 296.7224, "MEAN_ANOMALY": 61.885, "EPHEMERIS_TYPE": 0, "CLASSIFICATION_TYPE": "U", "NORAD_CAT_ID": 31172, "ELEMENT_SET_NO": 999, "REV_AT_EPOCH": 97491, "BSTAR": 0.00025561, "MEAN_MOTION_DOT": 7.19e-06, "MEAN_MOTION_DDOT": 0}, "tle": {"line1": "1 31172U 99025BJA 25337.29430125  .00000719  00000+0  25561-3 0  9993", "line2": "2 31172  98.4248 342.0453 0148250 296.7224  61.8850 14.31497145974911"}}, "geometry": {"type": "Point", "coordinates": [169.12423432052984, 37.98178892739606]}}, {"type": "Feature", "properties": {"norad_id": 31175, "name": "FENGYUN 1C DEB", "group": "fengyun-1c-debris", "lat": -29.491937117360322, "lon": 153.01418525843263, "alt_km": 650.4805921505231, "timestamp": "2025-12-03T17:47:50.998215+00:00", "meta": {"OBJECT_NAME": "FENGYUN 1C DEB", "OBJECT_ID": "1999-025BJD", "EPOCH": "2025-12-01T05:36:03.315744", "MEAN_MOTION": 14.59321579, "ECCENTRICITY": 0.0074068, "INCLINATION": 98.3999, "RA_OF_ASC_NODE": 335.2701, "ARG_OF_PERICENTER": 201.7312, "MEAN_ANOMALY": 158.074, "EPHEMERIS_TYPE": 0, "CLASSIFICATION_TYPE": "U", "NORAD_CAT_ID": 31175, "ELEMENT_SET_NO": 999, "REV_AT_EPOCH": 65471, "BSTAR": 0.0049007129, "MEAN_MOTION_DOT": 0.000241, "MEAN_MOTION_DDOT": 0}, "tle": {"line1": "1 31175U 99025BJD 25335.23337171  .00024100  00000+0  49007-2 0  9995", "line2": "2 31175  98.3999 335.2701 0074068 201.7312 158.0740 14.59321579654712"}}, "geometry": {"type": "Point", "coordinates": [153.01418525843263, -29.491937117360322]}}, {"type": "Feature", "properties": {"norad_id": 31177, "name": "FENGYUN 1C DEB", "group": "fengyun-1c-debris", "lat": 66.32454794818803, "lon": 92.66177346101004, "alt_km": 1180.9392742631662, "timestamp": "2025-12-03T17:47:50.998224+00:00", "meta": {"OBJECT_NAME": "FENGYUN 1C DEB", "OBJECT_ID": "1999-025BJF", "EPOCH": "2025-12-01T06:04:03.773280", "MEAN_MOTION": 13.62101426, "ECCENTRICITY": 0.0311511, "INCLINATION": 98.7576, "RA_OF_ASC_NODE": 249.8401, "ARG_OF_PERICENTER": 343.5186, "MEAN_ANOMALY": 168.581, "EPHEMERIS_TYPE": 0, "CLASSIFICATION_TYPE": "U", "NORAD_CAT_ID": 31177, "ELEMENT_SET_NO": 999, "REV_AT_EPOCH": 66055, "BSTAR": 0.0077346, "MEAN_MOTION_DOT": 8.228e-05, "MEAN_MOTION_DDOT": 0}, "tle": {"line1": "1 31177U 99025BJF 25335.25282145  .00008228  00000+0  77346-2 0  9999", "line2": "2 31177  98.7576 249.8401 0311511 343.5186 168.5810 13.62101426660550"}}, "geometry": {"type": "Point", "coordinates": [92.66177346101004, 66.32454794818803]}}, {"type": "Feature", "properties": {"norad_id": 31178, "name": "FENGYUN 1C DEB", "group": "fengyun-1c-debris", "lat": 45.95273462832795, "lon": -30.709609682772967, "alt_km": 776.1618550244593, "timestamp": "2025-12-03T17:47:50.998234+00:00", "meta": {"OBJECT_NAME": "FENGYUN 1C DEB", "OBJECT_ID": "1999-025BJG", "EPOCH": "2025-12-02T17:56:29.630688", "MEAN_MOTION": 14.22038193, "ECCENTRICITY": 0.01265047, "INCLINATION": 99.5128, "RA_OF_ASC_NODE": 338.2016, "ARG_OF_PERICENTER": 343.8083, "MEAN_ANOMALY": 15.9067, "EPHEMERIS_TYPE": 0, "CLASSIFICATION_TYPE": "U", "NORAD_CAT_ID": 31178, "ELEMENT_SET_NO": 999, "REV_AT_EPOCH": 95673, "BSTAR": 0.0027418123, "MEAN_MOTION_DOT": 6.532e-05, "MEAN_MOTION_DDOT": 0}, "tle": {"line1": "1 31178U 99025BJG 25336.74756517  .00006532  00000+0  27418-2 0  9995", "line2": "2 31178  99.5128 338.2016 0126504 343.8083  15.9067 14.22038193956737"}}, "geometry": {"type": "Point", "coordinates": [-30.709609682772967, 45.95273462832795]}}, {"type": "Feature", "properties": {"norad_id": 31179, "name": "FENGYUN 1C DEB", "group": "fengyun-1c-debris", "lat": 23.945161959677595, "lon": -178.04371155187417, "alt_km": 1021.0983900934752, "timestamp": "2025-12-03T17:47:50.998244+00:00", "meta": {"OBJECT_NAME": "FENGYUN 1C DEB", "OBJECT_ID": "1999-025BJH", "EPOCH": "2025-12-02T18:38:19.834080", "MEAN_MOTION": 13.91876266, "ECCENTRICITY": 0.02155185, "INCLINATION": 99.0225, "RA_OF_ASC_NODE": 356.9708, "ARG_OF_PERICENTER": 27.9923, "MEAN_ANOMALY": 333.2635, "EPHEMERIS_TYPE": 0, "CLASSIFICATION_TYPE": "U", "NORAD_CAT_ID": 31179, "ELEMENT_SET_NO": 999, "REV_AT_EPOCH": 61802, "BSTAR": 0.0014682115, "MEAN_MOTION_DOT": 2.219e-05, "MEAN_MOTION_DDOT": 0}, "tle": {"line1": "1 31179U 99025BJH 25336.77661845  .00002219  00000+0  14682-2 0  9995", "line2": "2 31179  99.0225 356.9708 0215518  27.9923 333.2635 13.91876266618023"}}, "geometry": {"type": "Point", "coordinates": [-178.04371155187417, 23.945161959677595]}}, {"type": "Feature", "properties": {"norad_id": 31180, "name": "FENGYUN 1C DEB", "group": "fengyun-1c-debris", "lat": -61.28757555327293, "lon": -87.62894547233608, "alt_km": 1346.4894968477129, "timestamp": "2025-12-03T17:47:50.998254+00:00", "meta": {"OBJECT_NAME": "FENGYUN 1C DEB", "OBJECT_ID": "1999-025BJJ", "EPOCH": "2025-11-30T15:08:19.454208", "MEAN_MOTION": 13.70323575, "ECCENTRICITY": 0.0498477, "INCLINATION": 99.2169, "RA_OF_ASC_NODE": 106.6187, "ARG_OF_PERICENTER": 91.7474, "MEAN_ANOMALY": 290.9094, "EPHEMERIS_TYPE": 0, "CLASSIFICATION_TYPE": "U", "NORAD_CAT_ID": 31180, "ELEMENT_SET_NO": 999, "REV_AT_EPOCH": 63901, "BSTAR": 0.00026447, "MEAN_MOTION_DOT": 5.24e-06, "MEAN_MOTION_DDOT": 0}, "tle": {"line1": "1 31180U 99025BJJ 25334.63078072  .00000524  00000+0  26447-3 0  9994", "line2": "2 31180  99.2169 106.6187 0498477  91.7474 290.9094 13.70323575639019"}}, "geometry": {"type": "Point", "coordinates": [-87.62894547233608, -61.28757555327293]}}, {"type": "Feature", "properties": {"norad_id": 31181, "name": "FENGYUN 1C DEB", "group": "fengyun-1c-debris", "lat": -44.9789437307884, "lon": -178.39415190168876, "alt_km": 880.4896469564228, "timestamp": "2025-12-03T17:47:50.998264+00:00", "meta": {"OBJECT_NAME": "FENGYUN 1C DEB", "OBJECT_ID": "1999-025BJK", "EPOCH": "2025-11-26T13:40:01.687872", "MEAN_MOTION": 14.11809177, "ECCENTRICITY": 0.00486382, "INCLINATION": 98.7773, "RA_OF_ASC_NODE": 3.4699, "ARG_OF_PERICENTER": 119.5671, "MEAN_ANOMALY": 33.2423, "EPHEMERIS_TYPE": 0, "CLASSIFICATION_TYPE": "U", "NORAD_CAT_ID": 31181, "ELEMENT_SET_NO": 999, "REV_AT_EPOCH": 95539, "BSTAR": 0.0010936699, "MEAN_MOTION_DOT": 1.975e-05, "MEAN_MOTION_DDOT": 0}, "tle": {"line1": "1 31181U 99025BJK 25330.56946398  .00001975  00000+0  10937-2 0  9995", "line2": "2 31181  98.7773   3.4699 0048638 119.5671  33.2423 14.11809177955394"}}, "geometry": {"type": "Point", "coordinates": [-178.39415190168876, -44.9789437307884]}}, {"type": "Feature", "properties": {"norad_id": 31182, "name": "FENGYUN 1C DEB", "group": "fengyun-1c-debris", "lat": -67.2091107586516, "lon": -11.811446907456833, "alt_km": 861.459503278792, "timestamp": "2025-12-03T17:47:50.998274+00:00", "meta": {"OBJECT_NAME": "FENGYUN 1C DEB", "OBJECT_ID": "1999-025BJL", "EPOCH": "2025-11-30T19:23:45.055104", "MEAN_MOTION": 14.14526628, "ECCENTRICITY": 0.00226562, "INCLINATION": 98.6809, "RA_OF_ASC_NODE": 324.0155, "ARG_OF_PERICENTER": 170.3323, "MEAN_ANOMALY": 311.2725, "EPHEMERIS_TYPE": 0, "CLASSIFICATION_TYPE": "U", "NORAD_CAT_ID": 31182, "ELEMENT_SET_NO": 999, "REV_AT_EPOCH": 95912, "BSTAR": 0.00037537528, "MEAN_MOTION_DOT": 6.79e-06, "MEAN_MOTION_DDOT": 0}, "tle": {"line1": "1 31182U 99025BJL 25334.80816036  .00000679  00000+0  37538-3 0  9999", "line2": "2 31182  98.6809 324.0155 0022656 170.3323 311.2725 14.14526628959123"}}, "geometry": {"type": "Point", "coordinates": [-11.811446907456833, -67.2091107586516]}}]}